[{"OBJECT_NAME":"BRO-11","OBJECT_ID":"2023-174J","EPOCH":"2026-03-09T23:01:09.890400","MEAN_MOTION":15.26267731,"ECCENTRICITY":0.00104518,"INCLINATION":97.3961,"RA_OF_ASC_NODE":146.7679,"ARG_OF_PERICENTER":189.9892,"MEAN_ANOMALY":170.1141,"EPHEMERIS_TYPE":0,"CLASSIFICATION_TYPE":"U","NORAD_CAT_ID":58264,"ELEMENT_SET_NO":999,"REV_AT_EPOCH":12961,"BSTAR":0.00032296323,"MEAN_MOTION_DOT":8.313e-5,"MEAN_MOTION_DDOT":0},{"OBJECT_NAME":"STARLINK-32647","OBJECT_ID":"2024-229J","EPOCH":"2026-03-09T21:47:24.710496","MEAN_MOTION":15.27594824,"ECCENTRICITY":0.0001627,"INCLINATION":42.9992,"RA_OF_ASC_NODE":269.5754,"ARG_OF_PERICENTER":275.0124,"MEAN_ANOMALY":85.0542,"EPHEMERIS_TYPE":0,"CLASSIFICATION_TYPE":"U","NORAD_CAT_ID":62200,"ELEMENT_SET_NO":999,"REV_AT_EPOCH":7059,"BSTAR":0.00089964588,"MEAN_MOTION_DOT":0.00024588,"MEAN_MOTION_DDOT":0}]
